NORAD_CAT_ID,OBJECT_NAME,OBJECT_TYPE,EPOCH,MEAN_MOTION,ECCENTRICITY,INCLINATION,RA_OF_ASC_NODE,ARG_OF_PERICENTER,MEAN_ANOMALY,BSTAR,MEAN_MOTION_DOT,MEAN_MOTION_DDOT,TLE_LINE0,TLE_LINE1,TLE_LINE2,SEMIMAJOR_AXIS,PERIOD,APOGEE,PERIGEE,DECAYED
55411.0,STARLINK-5605,PAYLOAD,2024-04-04 20:36:45,14.98324388,0.0003075,70.0011,39.2591,272.5618,87.5189,9.0329e-05,9.85e-06,0.0,0 STARLINK-5605,1 55411U 23014W   24095.85885770  .00000985  00000-0  90329-4 0  9993,2 55411  70.0011  39.2591 0003075 272.5618  87.5189 14.98324388 65685,6950.21,96.107,574.212,569.938,0.0
55411.0,STARLINK-5605,PAYLOAD,2024-04-04 22:12:53,14.9832493,0.0003077,70.0012,39.0908,272.5262,87.5545,9.422e-05,1.031e-05,0.0,0 STARLINK-5605,1 55411U 23014W   24095.92561746  .00001031  00000-0  94220-4 0  9992,2 55411  70.0012  39.0908 0003077 272.5262  87.5545 14.98324930 66638,6950.209,96.107,574.212,569.935,0.0
55411.0,STARLINK-5605,PAYLOAD,2024-04-05 06:13:33,14.9829988,0.0002881,70.0011,38.2491,271.0319,89.051,0.00065563,7.732e-05,0.0,0 STARLINK-5605,1 55411U 23014W   24096.25942109  .00007732  00000-0  65563-3 0  9996,2 55411  70.0011  38.2491 0002881 271.0319  89.0510 14.98299880 65749,6950.286,96.109,574.153,570.149,0.0
55411.0,STARLINK-5605,PAYLOAD,2024-04-05 20:38:45,14.98344105,0.0002407,70.0016,36.7363,272.7038,87.3845,-0.00018414,-2.29e-05,0.0,0 STARLINK-5605,1 55411U 23014W   24096.86025418 -.00002290  00000-0 -18414-3 0  9997,2 55411  70.0016  36.7363 0002407 272.7038  87.3845 14.98344105 65838,6950.149,96.106,573.687,570.341,0.0
55411.0,STARLINK-5605,PAYLOAD,2024-04-05 22:14:54,14.98336834,0.0002631,70.0017,36.568,270.8614,89.2244,-6.2822e-05,-8.43e-06,0.0,0 STARLINK-5605,1 55411U 23014W   24096.92701471 -.00000843  00000-0 -62822-4 0  9999,2 55411  70.0017  36.5680 0002631 270.8614  89.2244 14.98336834 66786,6950.172,96.107,573.865,570.208,0.0
55411.0,STARLINK-5605,PAYLOAD,2024-04-06 12:40:05,14.98368513,0.000309,70.0016,35.0524,264.5697,95.511,-0.00064525,-7.791e-05,0.0,0 STARLINK-5605,1 55411U 23014W   24097.52784466 -.00007791  00000-0 -64525-3 0  9991,2 55411  70.0016  35.0524 0003090 264.5697  95.5110 14.98368513 65934,6950.074,96.105,574.086,569.791,0.0
55411.0,STARLINK-5605,PAYLOAD,2024-04-06 19:04:38,14.98331023,0.0002909,70.0016,34.3789,265.2932,94.7895,2.116e-05,1.6e-06,0.0,0 STARLINK-5605,1 55411U 23014W   24097.79489379  .00000160  00000-0  21160-4 0  9995,2 55411  70.0016  34.3789 0002909 265.2932  94.7895 14.98331023 65978,6950.19,96.107,574.077,570.033,0.0
55411.0,STARLINK-5605,PAYLOAD,2024-04-06 22:16:55,14.98330687,0.000291,70.0015,34.0423,265.5277,94.555,1.4069e-06,-7.6e-07,0.0,0 STARLINK-5605,1 55411U 23014W   24097.92841452 -.00000076  00000-0  14069-5 0  9992,2 55411  70.0015  34.0423 0002910 265.5277  94.5550 14.98330687 66934,6950.191,96.107,574.078,570.033,0.0
55411.0,STARLINK-5605,PAYLOAD,2024-04-07 12:42:07,14.98336441,0.0002871,70.0015,32.5273,268.6355,91.4475,-0.00011041,-1.41e-05,0.0,0 STARLINK-5605,1 55411U 23014W   24098.52925274 -.00001410  00000-0 -11041-3 0  9993,2 55411  70.0015  32.5273 0002871 268.6355  91.4475 14.98336441 67024,6950.173,96.107,574.033,570.043,0.0
55411.0,STARLINK-5605,PAYLOAD,2024-04-07 20:42:48,14.98326423,0.0002563,70.0021,31.6859,263.7869,96.2998,2.3515e-05,1.88e-06,0.0,0 STARLINK-5605,1 55411U 23014W   24098.86305656  .00000188  00000-0  23515-4 0  9995,2 55411  70.0021  31.6859 0002563 263.7869  96.2998 14.98326423 66138,6950.204,96.107,573.85,570.288,0.0
55411.0,STARLINK-5605,PAYLOAD,2024-04-07 22:18:56,14.9832634,0.0002749,70.0014,31.5176,267.2188,92.8656,-1.0786e-05,-2.22e-06,0.0,0 STARLINK-5605,1 55411U 23014W   24098.92981769 -.00000222  00000-0 -10786-4 0  9994,2 55411  70.0014  31.5176 0002749 267.2188  92.8656 14.98326340 67086,6950.204,96.107,573.98,570.159,0.0
55411.0,STARLINK-5605,PAYLOAD,2024-04-08 12:44:08,14.98333812,0.0002877,70.001,30.0026,268.2493,91.8337,7.0338e-06,-9e-08,0.0,0 STARLINK-5605,1 55411U 23014W   24099.53065269 -.00000009  00000-0  70338-5 0  9992,2 55411  70.0010  30.0026 0002877 268.2493  91.8337 14.98333812 67179,6950.181,96.107,574.046,570.047,0.0
55411.0,STARLINK-5605,PAYLOAD,2024-04-08 23:57:04,14.98333606,0.0002754,70.0012,28.8244,270.3114,89.773,3.9362e-05,3.77e-06,0.0,0 STARLINK-5605,1 55411U 23014W   24099.99797176  .00000377  00000-0  39362-4 0  9999,2 55411  70.0012  28.8244 0002754 270.3114  89.7730 14.98333606 67248,6950.182,96.107,573.961,570.133,0.0
55411.0,STARLINK-5605,PAYLOAD,2024-04-09 12:46:09,14.98336723,0.0002477,70.0009,27.4758,277.5587,82.5291,-9.3116e-05,-1.204e-05,0.0,0 STARLINK-5605,1 55411U 23014W   24100.53205267 -.00001204  00000-0 -93116-4 0  9996,2 55411  70.0009  27.4758 0002477 277.5587  82.5291 14.98336723 66384,6950.172,96.107,573.759,570.316,0.0
55411.0,STARLINK-5605,PAYLOAD,2024-04-10 12:48:10,14.98344904,0.0002732,70.0014,24.9521,269.327,90.7576,-0.00030309,-3.709e-05,0.0,0 STARLINK-5605,1 55411U 23014W   24101.53345095 -.00003709  00000-0 -30309-3 0  9997,2 55411  70.0014  24.9521 0002732 269.3270  90.7576 14.98344904 66536,6950.147,96.106,573.911,570.113,0.0
55411.0,STARLINK-5605,PAYLOAD,2024-04-10 20:48:50,14.98329376,0.0002854,70.0007,24.1105,270.7279,89.3553,-1.817e-05,-3.1e-06,0.0,0 STARLINK-5605,1 55411U 23014W   24101.86725494 -.00000310  00000-0 -18170-4 0  9996,2 55411  70.0007  24.1105 0002854 270.7279  89.3553 14.98329376 66588,6950.195,96.107,574.043,570.076,0.0
55411.0,STARLINK-5605,PAYLOAD,2024-04-10 22:24:58,14.98328917,0.0002836,70.0008,23.942,270.8312,89.2522,-2.7612e-05,-4.22e-06,0.0,0 STARLINK-5605,1 55411U 23014W   24101.93401555 -.00000422  00000-0 -27612-4 0  9998,2 55411  70.0008  23.9420 0002836 270.8312  89.2522 14.98328917 67536,6950.196,96.107,574.032,570.09,0.0
55411.0,STARLINK-5605,PAYLOAD,2024-04-11 04:49:30,14.98325639,0.0002695,70.0007,23.2687,268.4023,91.6828,0.00015057,1.704e-05,0.0,0 STARLINK-5605,1 55411U 23014W   24102.20105297  .00001704  00000-0  15057-3 0  9994,2 55411  70.0007  23.2687 0002695 268.4023  91.6828 14.98325639 67576,6950.206,96.107,573.944,570.198,0.0
55411.0,STARLINK-5605,PAYLOAD,2024-04-11 20:50:51,14.98328537,0.00028,70.0007,21.5853,271.1187,88.9652,3.9537e-05,3.79e-06,0.0,0 STARLINK-5605,1 55411U 23014W   24102.86865340  .00000379  00000-0  39537-4 0  9995,2 55411  70.0007  21.5853 0002800 271.1187  88.9652 14.98328537 66733,6950.197,96.107,574.008,570.116,0.0
55411.0,STARLINK-5605,PAYLOAD,2024-04-11 22:26:59,14.98328432,0.0002802,70.0007,21.417,271.1152,88.9686,3.7971e-05,3.6e-06,0.0,0 STARLINK-5605,1 55411U 23014W   24102.93541359  .00000360  00000-0  37971-4 0  9994,2 55411  70.0007  21.4170 0002802 271.1152  88.9686 14.98328432 67684,6950.198,96.107,574.01,570.115,0.0
55411.0,STARLINK-5605,PAYLOAD,2024-04-12 04:51:31,14.98337149,0.0002811,70.0007,20.744,269.9824,90.1013,-7.093e-05,-9.39e-06,0.0,0 STARLINK-5605,1 55411U 23014W   24103.20245144 -.00000939  00000-0 -70930-4 0  9994,2 55411  70.0007  20.7440 0002811 269.9824  90.1013 14.98337149 67726,6950.171,96.107,573.989,570.082,0.0
55411.0,STARLINK-5605,PAYLOAD,2024-04-12 22:29:00,14.98332235,0.0002847,70.0006,18.8926,268.6212,91.4621,5.0062e-05,5.04e-06,0.0,0 STARLINK-5605,1 55411U 23014W   24103.93681049  .00000504  00000-0  50062-4 0  9992,2 55411  70.0006  18.8926 0002847 268.6212  91.4621 14.98332235 67830,6950.186,96.107,574.03,570.072,0.0
55411.0,STARLINK-5605,PAYLOAD,2024-04-13 04:53:32,14.98334725,0.0002788,70.0008,18.22,265.2881,94.7959,6.6864e-05,7.05e-06,0.0,0 STARLINK-5605,1 55411U 23014W   24104.20384809  .00000705  00000-0  66864-4 0  9997,2 55411  70.0008  18.2200 0002788 265.2881  94.7959 14.98334725 66936,6950.178,96.107,573.981,570.106,0.0
55411.0,STARLINK-5605,PAYLOAD,2024-04-13 20:54:55,14.98309996,0.00028,70.0008,16.5373,259.6183,100.466,-0.00017865,-2.223e-05,0.0,0 STARLINK-5605,1 55411U 23014W   24104.87147508 -.00002223  00000-0 -17865-3 0  9998,2 55411  70.0008  16.5373 0002800 259.6183 100.4660 14.98309996 67033,6950.255,96.108,574.066,570.174,0.0
55411.0,STARLINK-5605,PAYLOAD,2024-04-14 20:56:55,14.98331296,0.000265,70.0018,14.012,260.0274,100.0586,6.0589e-05,6.3e-06,0.0,0 STARLINK-5605,1 55411U 23014W   24105.87286203  .00000630  00000-0  60589-4 0  9995,2 55411  70.0018  14.0120 0002650 260.0274 100.0586 14.98331296 67184,6950.189,96.107,573.896,570.212,0.0
55411.0,STARLINK-5605,PAYLOAD,2024-04-14 22:33:03,14.98332778,0.0002981,70.0009,13.8428,268.9389,91.1428,3.8776e-05,3.7e-06,0.0,0 STARLINK-5605,1 55411U 23014W   24105.93962216  .00000370  00000-0  38776-4 0  9991,2 55411  70.0009  13.8428 0002981 268.9389  91.1428 14.98332778 68130,6950.184,96.107,574.121,569.977,0.0
55411.0,STARLINK-5605,PAYLOAD,2024-04-15 03:21:27,14.98336217,0.00022,70.0031,13.34,241.7439,118.3498,0.00016567,1.885e-05,0.0,0 STARLINK-5605,1 55411U 23014W   24106.13989612  .00001885  00000-0  16567-3 0  9998,2 55411  70.0031  13.3400 0002200 241.7439 118.3498 14.98336217 67229,6950.174,96.107,573.568,570.51,0.0
55411.0,STARLINK-5605,PAYLOAD,2024-04-15 20:58:55,14.98328253,0.000315,70.0009,11.4875,263.1633,96.9168,0.00028227,3.276e-05,0.0,0 STARLINK-5605,1 55411U 23014W   24106.87425685  .00003276  00000-0  28227-3 0  9996,2 55411  70.0009  11.4875 0003150 263.1633  96.9168 14.98328253 67336,6950.198,96.107,574.253,569.874,0.0
55411.0,STARLINK-5605,PAYLOAD,2024-04-16 11:24:07,14.98340164,0.0002294,70.0032,9.9727,283.0126,77.0777,0.00036114,4.22e-05,0.0,0 STARLINK-5605,1 55411U 23014W   24107.47508835  .00004220  00000-0  36114-3 0  9996,2 55411  70.0032   9.9727 0002294 283.0126  77.0777 14.98340164 67427,6950.161,96.106,573.621,570.432,0.0
55411.0,STARLINK-5605,PAYLOAD,2024-04-16 22:37:03,14.98347507,0.0002983,70.0002,8.7918,264.222,95.8599,-3.3491e-05,-4.93e-06,0.0,0 STARLINK-5605,1 55411U 23014W   24107.94240460 -.00000493  00000-0 -33491-4 0  9991,2 55411  70.0002   8.7918 0002983 264.2220  95.8599 14.98347507 68434,6950.139,96.106,574.077,569.931,0.0
